$$SOE
2461295.500000000, A.D. 2026-Sep-12 00:00:00.0000, 3.549418619887630E+08, 1.134775393949267E+08, 1.245719473546483E+07,
2461302.500000000, A.D. 2026-Sep-19 00:00:00.0000, 3.499420201534931E+08, 1.236854092789424E+08, 1.241719467475308E+07,
2461309.500000000, A.D. 2026-Sep-26 00:00:00.0000, 3.446105129573360E+08, 1.337760041002377E+08, 1.236542470303892E+07,
2461316.500000000, A.D. 2026-Oct-03 00:00:00.0000, 3.389484228487908E+08, 1.437382166293560E+08, 1.230179152873003E+07,
2461323.500000000, A.D. 2026-Oct-10 00:00:00.0000, 3.329571933604978E+08, 1.535607964427004E+08, 1.222621152942278E+07,
2461330.500000000, A.D. 2026-Oct-17 00:00:00.0000, 3.266386449151291E+08, 1.632323589316547E+08, 1.213861136074807E+07,
2461337.500000000, A.D. 2026-Oct-24 00:00:00.0000, 3.199949908310571E+08, 1.727413953843040E+08, 1.203892857766869E+07,
2461344.500000000, A.D. 2026-Oct-31 00:00:00.0000, 3.130288535553101E+08, 1.820762841371295E+08, 1.192711225149308E+07,
2461351.500000000, A.D. 2026-Nov-07 00:00:00.0000, 3.057432813810109E+08, 1.912253029375961E+08, 1.180312355513597E+07,
2461358.500000000, A.D. 2026-Nov-14 00:00:00.0000, 2.981417657602065E+08, 2.001766434733694E+08, 1.166693636840215E+07,
2461365.500000000, A.D. 2026-Nov-21 00:00:00.0000, 2.902282573016574E+08, 2.089184288196312E+08, 1.151853812368675E+07,
2461372.500000000, A.D. 2026-Nov-28 00:00:00.0000, 2.820071793586147E+08, 2.174387308691333E+08, 1.135793073788151E+07,
2461379.500000000, A.D. 2026-Dec-05 00:00:00.0000, 2.734834427296258E+08, 2.257255871481802E+08, 1.118513124358045E+07,
2461386.500000000, A.D. 2026-Dec-12 00:00:00.0000, 2.646624615200034E+08, 2.337670201723113E+08, 1.100017235524556E+07,
2461393.500000000, A.D. 2026-Dec-19 00:00:00.0000, 2.555501681422355E+08, 2.415510593847521E+08, 1.080310314015390E+07,
2461400.500000000, A.D. 2026-Dec-26 00:00:00.0000, 2.461530271679453E+08, 2.490657648390394E+08, 1.059398973210447E+07,
2461407.500000000, A.D. 2027-Jan-02 00:00:00.0000, 2.364780481515498E+08, 2.562992524541003E+08, 1.037291604231177E+07,
2461414.500000000, A.D. 2027-Jan-09 00:00:00.0000, 2.265327973765278E+08, 2.632397208691757E+08, 1.013998445327534E+07,
2461421.500000000, A.D. 2027-Jan-16 00:00:00.0000, 2.163254083842466E+08, 2.698754799009331E+08, 9.895316487552360E+06,
2461428.500000000, A.D. 2027-Jan-23 00:00:00.0000, 2.058645911477320E+08, 2.761949805412237E+08, 9.639053438027158E+06,
2461435.500000000, A.D. 2027-Jan-30 00:00:00.0000, 1.951596398878821E+08, 2.821868464091040E+08, 9.371356932248339E+06,
2461442.500000000, A.D. 2027-Feb-06 00:00:00.0000, 1.842204397630443E+08, 2.878399069407151E+08, 9.092409412928447E+06,
2461449.500000000, A.D. 2027-Feb-13 00:00:00.0000, 1.730574717767434E+08, 2.931432334562806E+08, 8.802414668786019E+06,
2461456.500000000, A.D. 2027-Feb-20 00:00:00.0000, 1.616818133365531E+08, 2.980861772032016E+08, 8.501598559799418E+06,
2461463.500000000, A.D. 2027-Feb-27 00:00:00.0000, 1.501051356550783E+08, 3.026584060393518E+08, 8.190209539501250E+06,
2461470.500000000, A.D. 2027-Mar-06 00:00:00.0000, 1.383397008236627E+08, 3.068499415374510E+08, 7.868518846874073E+06,
2461477.500000000, A.D. 2027-Mar-13 00:00:00.0000, 1.263983567751330E+08, 3.106511983806042E+08, 7.536820673279583E+06,
2461484.500000000, A.D. 2027-Mar-20 00:00:00.0000, 1.142945288271894E+08, 3.140530250092965E+08, 7.195432331691176E+06,
2461491.500000000, A.D. 2027-Mar-27 00:00:00.0000, 1.020422078443602E+08, 3.170467447429767E+08, 6.844694357120007E+06,
2461498.500000000, A.D. 2027-Apr-03 00:00:00.0000, 8.965593507565303E+07, 3.196241970753130E+08, 6.484970508196890E+06,
2461505.500000000, A.D. 2027-Apr-10 00:00:00.0000, 7.715078360454422E+07, 3.217777788880609E+08, 6.116647659018099E+06,
2461512.500000000, A.D. 2027-Apr-17 00:00:00.0000, 6.454233633353797E+07, 3.235004852677429E+08, 5.740135571438029E+06,
2461519.500000000, A.D. 2027-Apr-24 00:00:00.0000, 5.184666051107674E+07, 3.247859495403178E+08, 5.355866529552266E+06,
2461526.500000000, A.D. 2027-May-01 00:00:00.0000, 3.908027906073891E+07, 3.256284822111782E+08, 4.964294806149676E+06,
2461533.500000000, A.D. 2027-May-08 00:00:00.0000, 2.626013901604873E+07, 3.260231092062647E+08, 4.565895990017116E+06,
2461540.500000000, A.D. 2027-May-15 00:00:00.0000, 1.340357560297965E+07, 3.259656100055025E+08, 4.161166385695428E+06,
2461547.500000000, A.D. 2027-May-22 00:00:00.0000, 5.282704871151967E+05, 3.254525526954522E+08, 3.750622415157408E+06,
2461554.500000000, A.D. 2027-May-29 00:00:00.0000, -1.234779234711055E+07, 3.244813240930528E+08, 3.334799594472781E+06,
2461561.500000000, A.D. 2027-Jun-05 00:00:00.0000, -2.520637203748153E+07, 3.230501577154736E+08, 2.914251261273608E+06,
2461568.500000000, A.D. 2027-Jun-12 00:00:00.0000, -3.802901939745141E+07, 3.211581596713802E+08, 2.489547274292797E+06,
2461575.500000000, A.D. 2027-Jun-19 00:00:00.0000, -5.079712865816832E+07, 3.188053311930146E+08, 2.061272643252775E+06,
2461582.500000000, A.D. 2027-Jun-26 00:00:00.0000, -6.349199182308047E+07, 3.159925872287408E+08, 1.630026048214421E+06,
2461589.500000000, A.D. 2027-Jul-03 00:00:00.0000, -7.609485516447075E+07, 3.127217708168747E+08, 1.196418244494528E+06,
2461596.500000000, A.D. 2027-Jul-10 00:00:00.0000, -8.858697744722675E+07, 3.089956629984777E+08, 7.610703594026715E+05,
2461603.500000000, A.D. 2027-Jul-17 00:00:00.0000, -1.009496894290737E+08, 3.048179880200678E+08, 3.246120844824910E+05,
2461610.500000000, A.D. 2027-Jul-24 00:00:00.0000, -1.131644540335495E+08, 3.001934135960749E+08, -1.123202446844280E+05,
2461617.500000000, A.D. 2027-Jul-31 00:00:00.0000, -1.252129263118226E+08, 2.951275463423439E+08, -5.490856862822175E+05,
2461624.500000000, A.D. 2027-Aug-07 00:00:00.0000, -1.370770129103252E+08, 2.896269234566404E+08, -9.850407198408544E+05,
2461631.500000000, A.D. 2027-Aug-14 00:00:00.0000, -1.487389328604033E+08, 2.836990003791927E+08, -1.419541056973547E+06,
2461638.500000000, A.D. 2027-Aug-21 00:00:00.0000, -1.601812785826978E+08, 2.773521311160306E+08, -1.851943549753055E+06,
2461645.500000000, A.D. 2027-Aug-28 00:00:00.0000, -1.713870731975868E+08, 2.705955425324418E+08, -2.281608395062447E+06,
2461652.500000000, A.D. 2027-Sep-04 00:00:00.0000, -1.823398248624699E+08, 2.634393052998370E+08, -2.707901306792468E+06,
2461659.500000000, A.D. 2027-Sep-11 00:00:00.0000, -1.930235790760666E+08, 2.558943010691287E+08, -3.130195567521498E+06,
2461666.500000000, A.D. 2027-Sep-18 00:00:00.0000, -2.034229683862349E+08, 2.479721854909238E+08, -3.547874009349391E+06,
2461673.500000000, A.D. 2027-Sep-25 00:00:00.0000, -2.135232588818962E+08, 2.396853473184030E+08, -3.960330935522512E+06,
2461680.500000000, A.D. 2027-Oct-02 00:00:00.0000, -2.233103930472482E+08, 2.310468639767363E+08, -4.366973972552747E+06,
2461687.500000000, A.D. 2027-Oct-09 00:00:00.0000, -2.327710286560777E+08, 2.220704539878050E+08, -4.767225841384411E+06,
2461694.500000000, A.D. 2027-Oct-16 00:00:00.0000, -2.418925733935004E+08, 2.127704266184886E+08, -5.160526045254737E+06,
2461701.500000000, A.D. 2027-Oct-23 00:00:00.0000, -2.506632147483937E+08, 2.031616291920713E+08, -5.546332487277582E+06,
2461708.500000000, A.D. 2027-Oct-30 00:00:00.0000, -2.590719446594730E+08, 1.932593931322763E+08, -5.924122992426932E+06,
2461715.500000000, A.D. 2027-Nov-06 00:00:00.0000, -2.671085799936399E+08, 1.830794803341208E+08, -6.293396527047552E+06,
2461722.500000000, A.D. 2027-Nov-13 00:00:00.0000, -2.747637808156253E+08, 1.726380282554487E+08, -6.653674097986400E+06,
2461729.500000000, A.D. 2027-Nov-20 00:00:00.0000, -2.820290635655345E+08, 1.619514920079993E+08, -7.004499771662623E+06,
2461736.500000000, A.D. 2027-Nov-27 00:00:00.0000, -2.888968075886067E+08, 1.510365868514417E+08, -7.345441714559734E+06,
2461743.500000000, A.D. 2027-Dec-04 00:00:00.0000, -2.953602571637346E+08, 1.399102324230677E+08, -7.676092993567266E+06,
2461750.500000000, A.D. 2027-Dec-11 00:00:00.0000, -3.014135197499202E+08, 1.285894981430797E+08, -7.996072165973373E+06,
2461757.500000000, A.D. 2027-Dec-18 00:00:00.0000, -3.070515603751770E+08, 1.170915498295025E+08, -8.305023714045227E+06,
2461764.500000000, A.D. 2027-Dec-25 00:00:00.0000, -3.122701922473044E+08, 1.054335978568427E+08, -8.602618341309946E+06,
2461771.500000000, A.D. 2028-Jan-01 00:00:00.0000, -3.170660638054433E+08, 9.363284717280106E+07, -8.888553137547035E+06,
$$EOE